$$SOE
2461281.500000000, A.D. 2026-Aug-29 00:00:00.0000, -6.405624432484384E+09, 2.122589214718609E+09, -1.651621503346487E+09,
2461288.500000000, A.D. 2026-Sep-05 00:00:00.0000, -6.406021410667694E+09, 2.119999682436852E+09, -1.651841829713566E+09,
2461295.500000000, A.D. 2026-Sep-12 00:00:00.0000, -6.406417431339239E+09, 2.117409793540702E+09, -1.652061916741490E+09,
2461302.500000000, A.D. 2026-Sep-19 00:00:00.0000, -6.406812495848472E+09, 2.114819547372796E+09, -1.652281764205993E+09,
2461309.500000000, A.D. 2026-Sep-26 00:00:00.0000, -6.407206605166486E+09, 2.112228942693720E+09, -1.652501371930902E+09,
2461316.500000000, A.D. 2026-Oct-03 00:00:00.0000, -6.407599759815762E+09, 2.109637977917374E+09, -1.652720739778457E+09,
2461323.500000000, A.D. 2026-Oct-10 00:00:00.0000, -6.407991959886511E+09, 2.107046651253645E+09, -1.652939867640188E+09,
2461330.500000000, A.D. 2026-Oct-17 00:00:00.0000, -6.408383205087971E+09, 2.104454960777543E+09, -1.653158755431460E+09,
2461337.500000000, A.D. 2026-Oct-24 00:00:00.0000, -6.408773494810235E+09, 2.101862904402248E+09, -1.653377403093662E+09,
2461344.500000000, A.D. 2026-Oct-31 00:00:00.0000, -6.409162828097893E+09, 2.099270479689430E+09, -1.653595810618436E+09,
2461351.500000000, A.D. 2026-Nov-07 00:00:00.0000, -6.409551203196373E+09, 2.096677683570931E+09, -1.653813978118822E+09,
2461358.500000000, A.D. 2026-Nov-14 00:00:00.0000, -6.409938616470153E+09, 2.094084512869250E+09, -1.654031905893015E+09,
2461365.500000000, A.D. 2026-Nov-21 00:00:00.0000, -6.410325062504547E+09, 2.091490966298673E+09, -1.654249594258616E+09,
2461372.500000000, A.D. 2026-Nov-28 00:00:00.0000, -6.410710536389199E+09, 2.088897044939016E+09, -1.654467043311391E+09,
2461379.500000000, A.D. 2026-Dec-05 00:00:00.0000, -6.411095034563716E+09, 2.086302750525639E+09, -1.654684252993878E+09,
2461386.500000000, A.D. 2026-Dec-12 00:00:00.0000, -6.411478554060552E+09, 2.083708084666703E+09, -1.654901223234427E+09,
2461393.500000000, A.D. 2026-Dec-19 00:00:00.0000, -6.411861092032357E+09, 2.081113048994133E+09, -1.655117953982800E+09,
2461400.500000000, A.D. 2026-Dec-26 00:00:00.0000, -6.412242645706275E+09, 2.078517645380157E+09, -1.655334445199987E+09,
2461407.500000000, A.D. 2027-Jan-02 00:00:00.0000, -6.412623212489575E+09, 2.075921876028439E+09, -1.655550696842973E+09,
2461414.500000000, A.D. 2027-Jan-09 00:00:00.0000, -6.413002790110302E+09, 2.073325743459762E+09, -1.655766708853390E+09,
2461421.500000000, A.D. 2027-Jan-16 00:00:00.0000, -6.413381376758658E+09, 2.070729250400898E+09, -1.655982481152526E+09,
2461428.500000000, A.D. 2027-Jan-23 00:00:00.0000, -6.413758971184525E+09, 2.068132399536798E+09, -1.656198013650108E+09,
2461435.500000000, A.D. 2027-Jan-30 00:00:00.0000, -6.414135572565017E+09, 2.065535193078158E+09, -1.656413306288019E+09,
2461442.500000000, A.D. 2027-Feb-06 00:00:00.0000, -6.414511179718957E+09, 2.062937632484218E+09, -1.656628359130214E+09,
2461449.500000000, A.D. 2027-Feb-13 00:00:00.0000, -6.414885790130169E+09, 2.060339719560349E+09, -1.656843172357060E+09,
2461456.500000000, A.D. 2027-Feb-20 00:00:00.0000, -6.415259401144762E+09, 2.057741458139335E+09, -1.657057746012123E+09,
2461463.500000000, A.D. 2027-Feb-27 00:00:00.0000, -6.415632011947458E+09, 2.055142853132621E+09, -1.657272079892254E+09,
2461470.500000000, A.D. 2027-Mar-06 00:00:00.0000, -6.416003623299453E+09, 2.052543908874096E+09, -1.657486173700875E+09,
2461477.500000000, A.D. 2027-Mar-13 00:00:00.0000, -6.416374236638353E+09, 2.049944628805855E+09, -1.657700027150388E+09,
2461484.500000000, A.D. 2027-Mar-20 00:00:00.0000, -6.416743853669764E+09, 2.047345015671312E+09, -1.657913639978540E+09,
2461491.500000000, A.D. 2027-Mar-27 00:00:00.0000, -6.417112476248549E+09, 2.044745071666703E+09, -1.658127011942230E+09,
2461498.500000000, A.D. 2027-Apr-03 00:00:00.0000, -6.417480106346865E+09, 2.042144798503259E+09, -1.658340142811422E+09,
2461505.500000000, A.D. 2027-Apr-10 00:00:00.0000, -6.417846746047749E+09, 2.039544197403100E+09, -1.658553032366937E+09,
2461512.500000000, A.D. 2027-Apr-17 00:00:00.0000, -6.418212397542150E+09, 2.036943269014549E+09, -1.658765680405388E+09,
2461519.500000000, A.D. 2027-Apr-24 00:00:00.0000, -6.418577063050218E+09, 2.034342013184699E+09, -1.658978086763611E+09,
2461526.500000000, A.D. 2027-May-01 00:00:00.0000, -6.418940744367218E+09, 2.031740428617037E+09, -1.659190251387816E+09,
2461533.500000000, A.D. 2027-May-08 00:00:00.0000, -6.419303441726641E+09, 2.029138513162541E+09, -1.659402174414476E+09,
2461540.500000000, A.D. 2027-May-15 00:00:00.0000, -6.419665153477437E+09, 2.026536265697664E+09, -1.659613856047732E+09,
2461547.500000000, A.D. 2027-May-22 00:00:00.0000, -6.420025878139182E+09, 2.023933686997604E+09, -1.659825296301637E+09,
2461554.500000000, A.D. 2027-May-29 00:00:00.0000, -6.420385615479290E+09, 2.021330778136618E+09, -1.660036495034962E+09,
2461561.500000000, A.D. 2027-Jun-05 00:00:00.0000, -6.420744365727413E+09, 2.018727539547111E+09, -1.660247452103690E+09,
2461568.500000000, A.D. 2027-Jun-12 00:00:00.0000, -6.421102128934553E+09, 2.016123971169314E+09, -1.660458167411671E+09,
2461575.500000000, A.D. 2027-Jun-19 00:00:00.0000, -6.421458904807927E+09, 2.013520072756522E+09, -1.660668640905356E+09,
2461582.500000000, A.D. 2027-Jun-26 00:00:00.0000, -6.421814692742153E+09, 2.010915844074585E+09, -1.660878872559394E+09,
2461589.500000000, A.D. 2027-Jul-03 00:00:00.0000, -6.422169491914624E+09, 2.008311285003960E+09, -1.661088862364340E+09,
2461596.500000000, A.D. 2027-Jul-10 00:00:00.0000, -6.422523301408252E+09, 2.005706395553024E+09, -1.661298610318882E+09,
2461603.500000000, A.D. 2027-Jul-17 00:00:00.0000, -6.422876120325201E+09, 2.003101175743809E+09, -1.661508116432866E+09,
2461610.500000000, A.D. 2027-Jul-24 00:00:00.0000, -6.423227947735209E+09, 2.000495625307339E+09, -1.661717380760333E+09,
2461617.500000000, A.D. 2027-Jul-31 00:00:00.0000, -6.423578782047057E+09, 1.997889743424103E+09, -1.661926403480839E+09,
2461624.500000000, A.D. 2027-Aug-07 00:00:00.0000, -6.423928620003908E+09, 1.995283529661356E+09, -1.662135184916352E+09,
2461631.500000000, A.D. 2027-Aug-14 00:00:00.0000, -6.424277457603629E+09, 1.992676985853975E+09, -1.662343725293246E+09,
2461638.500000000, A.D. 2027-Aug-21 00:00:00.0000, -6.424625292325897E+09, 1.990070115564668E+09, -1.662552024581008E+09,
2461645.500000000, A.D. 2027-Aug-28 00:00:00.0000, -6.424972123235007E+09, 1.987462922326755E+09, -1.662760082624033E+09,
2461652.500000000, A.D. 2027-Sep-04 00:00:00.0000, -6.425317950139533E+09, 1.984855409171825E+09, -1.662967899253803E+09,
2461659.500000000, A.D. 2027-Sep-11 00:00:00.0000, -6.425662773204170E+09, 1.982247578780982E+09, -1.663175474307714E+09,
2461666.500000000, A.D. 2027-Sep-18 00:00:00.0000, -6.426006592880548E+09, 1.979639433609583E+09, -1.663382807620163E+09,
2461673.500000000, A.D. 2027-Sep-25 00:00:00.0000, -6.426349409928175E+09, 1.977030975908080E+09, -1.663589899013474E+09,
2461680.500000000, A.D. 2027-Oct-02 00:00:00.0000, -6.426691225450453E+09, 1.974422207666873E+09, -1.663796748293566E+09,
2461687.500000000, A.D. 2027-Oct-09 00:00:00.0000, -6.427032040923213E+09, 1.971813130481037E+09, -1.664003355253050E+09,
2461694.500000000, A.D. 2027-Oct-16 00:00:00.0000, -6.427371858152540E+09, 1.969203745280511E+09, -1.664209719692260E+09,
2461701.500000000, A.D. 2027-Oct-23 00:00:00.0000, -6.427710678901859E+09, 1.966594051920408E+09, -1.664415841482690E+09,
2461708.500000000, A.D. 2027-Oct-30 00:00:00.0000, -6.428048503813445E+09, 1.963984049242142E+09, -1.664621720657495E+09,
2461715.500000000, A.D. 2027-Nov-06 00:00:00.0000, -6.428385331787674E+09, 1.961373736733803E+09, -1.664827357330234E+09,
2461722.500000000, A.D. 2027-Nov-13 00:00:00.0000, -6.428721161805365E+09, 1.958763115713786E+09, -1.665032751429507E+09,
2461729.500000000, A.D. 2027-Nov-20 00:00:00.0000, -6.429055994291330E+09, 1.956152187851970E+09, -1.665237902694298E+09,
2461736.500000000, A.D. 2027-Nov-27 00:00:00.0000, -6.429389830401480E+09, 1.953540953993034E+09, -1.665442810836066E+09,
2461743.500000000, A.D. 2027-Dec-04 00:00:00.0000, -6.429722671257067E+09, 1.950929414195919E+09, -1.665647475607290E+09,
2461750.500000000, A.D. 2027-Dec-11 00:00:00.0000, -6.430054517676626E+09, 1.948317568025539E+09, -1.665851896804687E+09,
2461757.500000000, A.D. 2027-Dec-18 00:00:00.0000, -6.430385370130610E+09, 1.945705414757752E+09, -1.666056074259960E+09,
2461764.500000000, A.D. 2027-Dec-25 00:00:00.0000, -6.430715228766762E+09, 1.943092953495516E+09, -1.666260007832098E+09,
2461771.500000000, A.D. 2028-Jan-01 00:00:00.0000, -6.431044093464784E+09, 1.940480183210934E+09, -1.666463697403744E+09,
$$EOE